{
  "type": "FeatureCollection",
  "features": [
    {
      "type": "Feature",
      "properties": {
        "norad_id": 32332,
        "name": "FENGYUN 1C DEB",
        "group": "fengyun-1c-debris",
        "lat": 56.20281524863281,
        "lon": -111.75550969590111,
        "alt_km": 1081.4919602078471,
        "timestamp": "2025-12-26T08:37:54.866392+00:00",
        "meta_object_name": "FENGYUN 1C DEB",
        "meta_object_id": "1999-025CXZ",
        "meta_epoch": "2025-12-15T21:05:55.809024",
        "meta_mean_motion": 13.97153731,
        "meta_eccentricity": 0.02851681,
        "meta_inclination": 99.133,
        "meta_ra_of_asc_node": 43.9123,
        "meta_arg_of_pericenter": 304.1737,
        "meta_mean_anomaly": 53.2688,
        "meta_ephemeris_type": 0,
        "meta_classification_type": "U",
        "meta_norad_cat_id": 32332,
        "meta_element_set_no": 999,
        "meta_rev_at_epoch": 93080,
        "meta_bstar": 0.0011409516,
        "meta_mean_motion_dot": 2.204e-05,
        "meta_mean_motion_ddot": 0,
        "tle_line1": "1 32332U 99025CXZ 25349.87911816  .00002204  00000+0  11410-2 0  9998",
        "tle_line2": "2 32332  99.1330  43.9123 0285168 304.1737  53.2688 13.97153731930809"
      },
      "geometry": {
        "type": "Point",
        "coordinates": [
          -111.75550969590111,
          56.20281524863281
        ]
      }
    },
    {
      "type": "Feature",
      "properties": {
        "norad_id": 32334,
        "name": "FENGYUN 1C DEB",
        "group": "fengyun-1c-debris",
        "lat": 4.375205557812022,
        "lon": -124.32729133840583,
        "alt_km": 871.5575074888393,
        "timestamp": "2025-12-26T08:37:54.866401+00:00",
        "meta_object_name": "FENGYUN 1C DEB",
        "meta_object_id": "1999-025CYB",
        "meta_epoch": "2025-12-24T14:40:26.396832",
        "meta_mean_motion": 14.01652473,
        "meta_eccentricity": 0.00671571,
        "meta_inclination": 99.2504,
        "meta_ra_of_asc_node": 53.1864,
        "meta_arg_of_pericenter": 247.9551,
        "meta_mean_anomaly": 111.4472,
        "meta_ephemeris_type": 0,
        "meta_classification_type": "U",
        "meta_norad_cat_id": 32334,
        "meta_element_set_no": 999,
        "meta_rev_at_epoch": 94106,
        "meta_bstar": 0.00027411253,
        "meta_mean_motion_dot": 3.77e-06,
        "meta_mean_motion_ddot": 0,
        "tle_line1": "1 32334U 99025CYB 25358.61141663  .00000377  00000+0  27411-3 0  9995",
        "tle_line2": "2 32334  99.2504  53.1864 0067157 247.9551 111.4472 14.01652473941065"
      },
      "geometry": {
        "type": "Point",
        "coordinates": [
          -124.32729133840583,
          4.375205557812022
        ]
      }
    },
    {
      "type": "Feature",
      "properties": {
        "norad_id": 32340,
        "name": "FENGYUN 1C DEB",
        "group": "fengyun-1c-debris",
        "lat": 67.0490858315591,
        "lon": -14.295193519790915,
        "alt_km": 662.1828131784268,
        "timestamp": "2025-12-26T08:37:54.866411+00:00",
        "meta_object_name": "FENGYUN 1C DEB",
        "meta_object_id": "1999-025CYH",
        "meta_epoch": "2025-12-23T07:03:11.292480",
        "meta_mean_motion": 14.74893451,
        "meta_eccentricity": 0.00335712,
        "meta_inclination": 98.9803,
        "meta_ra_of_asc_node": 4.235,
        "meta_arg_of_pericenter": 260.0415,
        "meta_mean_anomaly": 99.7002,
        "meta_ephemeris_type": 0,
        "meta_classification_type": "U",
        "meta_norad_cat_id": 32340,
        "meta_element_set_no": 999,
        "meta_rev_at_epoch": 97352,
        "meta_bstar": 0.0022824537,
        "meta_mean_motion_dot": 0.00015424,
        "meta_mean_motion_ddot": 0,
        "tle_line1": "1 32340U 99025CYH 25357.29388070  .00015424  00000+0  22825-2 0  9992",
        "tle_line2": "2 32340  98.9803   4.2350 0033571 260.0415  99.7002 14.74893451973521"
      },
      "geometry": {
        "type": "Point",
        "coordinates": [
          -14.295193519790915,
          67.0490858315591
        ]
      }
    },
    {
      "type": "Feature",
      "properties": {
        "norad_id": 32342,
        "name": "FENGYUN 1C DEB",
        "group": "fengyun-1c-debris",
        "lat": 26.955632438119792,
        "lon": 4.094548835508906,
        "alt_km": 845.5276909393469,
        "timestamp": "2025-12-26T08:37:54.866421+00:00",
        "meta_object_name": "FENGYUN 1C DEB",
        "meta_object_id": "1999-025CYK",
        "meta_epoch": "2025-12-25T22:36:58.625280",
        "meta_mean_motion": 14.13404022,
        "meta_eccentricity": 0.00068786,
        "meta_inclination": 98.6699,
        "meta_ra_of_asc_node": 8.1405,
        "meta_arg_of_pericenter": 311.4329,
        "meta_mean_anomaly": 113.6552,
        "meta_ephemeris_type": 0,
        "meta_classification_type": "U",
        "meta_norad_cat_id": 32342,
        "meta_element_set_no": 999,
        "meta_rev_at_epoch": 93904,
        "meta_bstar": 9.819406e-05,
        "meta_mean_motion_dot": 1.42e-06,
        "meta_mean_motion_ddot": 0,
        "tle_line1": "1 32342U 99025CYK 25359.94234520  .00000142  00000+0  98194-4 0  9993",
        "tle_line2": "2 32342  98.6699   8.1405 0006878 311.4329 113.6552 14.13404022939042"
      },
      "geometry": {
        "type": "Point",
        "coordinates": [
          4.094548835508906,
          26.955632438119792
        ]
      }
    },
    {
      "type": "Feature",
      "properties": {
        "norad_id": 32343,
        "name": "FENGYUN 1C DEB",
        "group": "fengyun-1c-debris",
        "lat": 18.648107024993784,
        "lon": 169.69363957109806,
        "alt_km": 791.8451188434256,
        "timestamp": "2025-12-26T08:37:54.866431+00:00",
        "meta_object_name": "FENGYUN 1C DEB",
        "meta_object_id": "1999-025CYL",
        "meta_epoch": "2025-12-13T05:18:56.833632",
        "meta_mean_motion": 14.19848796,
        "meta_eccentricity": 0.01521973,
        "meta_inclination": 98.6084,
        "meta_ra_of_asc_node": 333.9812,
        "meta_arg_of_pericenter": 126.2805,
        "meta_mean_anomaly": 235.2541,
        "meta_ephemeris_type": 0,
        "meta_classification_type": "U",
        "meta_norad_cat_id": 32343,
        "meta_element_set_no": 999,
        "meta_rev_at_epoch": 64720,
        "meta_bstar": 0.00041342117,
        "meta_mean_motion_dot": 9.43e-06,
        "meta_mean_motion_ddot": 0,
        "tle_line1": "1 32343U 99025CYL 25347.22149113  .00000943  00000+0  41342-3 0  9996",
        "tle_line2": "2 32343  98.6084 333.9812 0152197 126.2805 235.2541 14.19848796647208"
      },
      "geometry": {
        "type": "Point",
        "coordinates": [
          169.69363957109806,
          18.648107024993784
        ]
      }
    },
    {
      "type": "Feature",
      "properties": {
        "norad_id": 32350,
        "name": "FENGYUN 1C DEB",
        "group": "fengyun-1c-debris",
        "lat": -56.926228897222124,
        "lon": -147.97358349853016,
        "alt_km": 544.3575491682195,
        "timestamp": "2025-12-26T08:37:54.866461+00:00",
        "meta_object_name": "FENGYUN 1C DEB",
        "meta_object_id": "1999-025CYT",
        "meta_epoch": "2025-12-23T20:00:36.959040",
        "meta_mean_motion": 14.52655293,
        "meta_eccentricity": 0.0266548,
        "meta_inclination": 98.2271,
        "meta_ra_of_asc_node": 42.3822,
        "meta_arg_of_pericenter": 264.2753,
        "meta_mean_anomaly": 92.7999,
        "meta_ephemeris_type": 0,
        "meta_classification_type": "U",
        "meta_norad_cat_id": 32350,
        "meta_element_set_no": 999,
        "meta_rev_at_epoch": 97688,
        "meta_bstar": 0.00070823,
        "meta_mean_motion_dot": 4.579e-05,
        "meta_mean_motion_ddot": 0,
        "tle_line1": "1 32350U 99025CYT 25357.83376110  .00004579  00000+0  70823-3 0  9996",
        "tle_line2": "2 32350  98.2271  42.3822 0266548 264.2753  92.7999 14.52655293976880"
      },
      "geometry": {
        "type": "Point",
        "coordinates": [
          -147.97358349853016,
          -56.926228897222124
        ]
      }
    },
    {
      "type": "Feature",
      "properties": {
        "norad_id": 32352,
        "name": "FENGYUN 1C DEB",
        "group": "fengyun-1c-debris",
        "lat": 25.652514234392605,
        "lon": 105.0002328210649,
        "alt_km": 672.4019398004948,
        "timestamp": "2025-12-26T08:37:54.866472+00:00",
        "meta_object_name": "FENGYUN 1C DEB",
        "meta_object_id": "1999-025CYV",
        "meta_epoch": "2025-12-25T00:16:27.065568",
        "meta_mean_motion": 14.41437454,
        "meta_eccentricity": 0.01226682,
        "meta_inclination": 98.7798,
        "meta_ra_of_asc_node": 279.3585,
        "meta_arg_of_pericenter": 134.5255,
        "meta_mean_anomaly": 226.6034,
        "meta_ephemeris_type": 0,
        "meta_classification_type": "U",
        "meta_norad_cat_id": 32352,
        "meta_element_set_no": 999,
        "meta_rev_at_epoch": 65446,
        "meta_bstar": 0.00020280465,
        "meta_mean_motion_dot": 6.69e-06,
        "meta_mean_motion_ddot": 0,
        "tle_line1": "1 32352U 99025CYV 25359.01142437  .00000669  00000+0  20280-3 0  9991",
        "tle_line2": "2 32352  98.7798 279.3585 0122668 134.5255 226.6034 14.41437454654469"
      },
      "geometry": {
        "type": "Point",
        "coordinates": [
          105.0002328210649,
          25.652514234392605
        ]
      }
    }
  ]
}